STARLINK-2434
1 47842U 21018BH  23078.75951717 -.00001696  00000+0 -94895-4 0  9991
2 47842  53.0517  96.5460 0002305  80.6919 279.4331 15.06417014112441
